{
  "links" : {
    "next" : "https://api.nasa.gov/neo/rest/v1/feed?start_date=2003-12-16&end_date=2003-12-16&detailed=true&api_key=t0TVs3DtDT2H8Oy2Zy8m2eVrNsAVKAexjcZXUckd",
    "prev" : "https://api.nasa.gov/neo/rest/v1/feed?start_date=2003-12-14&end_date=2003-12-14&detailed=true&api_key=t0TVs3DtDT2H8Oy2Zy8m2eVrNsAVKAexjcZXUckd",
    "self" : "https://api.nasa.gov/neo/rest/v1/feed?start_date=2003-12-15&end_date=2003-12-15&detailed=true&api_key=t0TVs3DtDT2H8Oy2Zy8m2eVrNsAVKAexjcZXUckd"
  },
  "element_count" : 7,
  "near_earth_objects" : {
    "2003-12-15" : [ {
      "links" : {
        "self" : "https://api.nasa.gov/neo/rest/v1/neo/3760889?api_key=t0TVs3DtDT2H8Oy2Zy8m2eVrNsAVKAexjcZXUckd"
      },
      "neo_reference_id" : "3760889",
      "name" : "(2016 TA56)",
      "nasa_jpl_url" : "http://ssd.jpl.nasa.gov/sbdb.cgi?sstr=3760889",
      "absolute_magnitude_h" : 18.2,
      "estimated_diameter" : {
        "kilometers" : {
          "estimated_diameter_min" : 0.6089126221,
          "estimated_diameter_max" : 1.3615700154
        },
        "meters" : {
          "estimated_diameter_min" : 608.9126221057,
          "estimated_diameter_max" : 1361.5700153859
        },
        "miles" : {
          "estimated_diameter_min" : 0.3783606449,
          "estimated_diameter_max" : 0.846040122
        },
        "feet" : {
          "estimated_diameter_min" : 1997.7448871092,
          "estimated_diameter_max" : 4467.0933692788
        }
      },
      "is_potentially_hazardous_asteroid" : false,
      "close_approach_data" : [ {
        "close_approach_date" : "2003-12-15",
        "epoch_date_close_approach" : 1071475200000,
        "relative_velocity" : {
          "kilometers_per_second" : "26.4158965771",
          "kilometers_per_hour" : "95097.2276774639",
          "miles_per_hour" : "59089.7190532553"
        },
        "miss_distance" : {
          "astronomical" : "0.4804408347",
          "lunar" : "186.8914794922",
          "kilometers" : "71872928",
          "miles" : "44659764"
        },
        "orbiting_body" : "Earth"
      } ],
      "orbital_data" : {
        "orbit_id" : "17",
        "orbit_determination_date" : "2017-06-14 06:17:38",
        "orbit_uncertainty" : "4",
        "minimum_orbit_intersection" : ".410852",
        "jupiter_tisserand_invariant" : "2.691",
        "epoch_osculation" : "2458000.5",
        "eccentricity" : ".7835377580788698",
        "semi_major_axis" : "2.685974576157531",
        "inclination" : "32.41697356984812",
        "ascending_node_longitude" : "173.8763136657456",
        "orbital_period" : "1607.871262900969",
        "perihelion_distance" : ".5814120784982165",
        "perihelion_argument" : "359.6450856597417",
        "aphelion_distance" : "4.790537073816846",
        "perihelion_time" : "2457833.521602750209",
        "mean_anomaly" : "37.38621641975777",
        "mean_motion" : ".2238985224168242",
        "equinox" : "J2000"
      }
    } ]
  }
}